QIANFAN-103             
1 66045U 25233N   26064.27254952  .00000018  00000+0  85683-5 0  9993
2 66045  88.9936  53.6962 0001898  91.6287 268.5082 13.51006100 19150
QIANFAN-104             
1 66046U 25233P   26064.27645003  .00000030  00000+0  27339-4 0  9992
2 66046  88.9941  53.5932 0002079  85.9812 274.1577 13.51010209 19208
QIANFAN-105             
1 66047U 25233Q   26064.28461083  .00000038  00000+0  39812-4 0  9995
2 66047  88.9954  53.4216 0002042  92.4238 267.7147 13.50981475 19316
QIANFAN-106             
1 66048U 25233R   26064.28073115  .00000036  00000+0  37880-4 0  9992
2 66048  88.9923  53.6676 0002388  86.1510 273.9914 13.51005190 19167
QIANFAN-107             
1 66049U 25233S   26064.21492681  .00000045  00000+0  51054-4 0  9998
2 66049  88.9938  53.6902 0001924  90.6904 269.4468 13.51003229 19152
QIANFAN-108             
1 66050U 25233T   26064.21903171  .00000043  00000+0  48146-4 0  9997
2 66050  88.9931  53.6849 0002341  85.7614 274.3804 13.51004729 19159
