[{"OBJECT_NAME":"QIANFAN-103","OBJECT_ID":"2025-233N","EPOCH":"2026-03-05T06:32:28.278528","MEAN_MOTION":13.510061,"ECCENTRICITY":0.00018985,"INCLINATION":88.9936,"RA_OF_ASC_NODE":53.6962,"ARG_OF_PERICENTER":91.6287,"MEAN_ANOMALY":268.5082,"EPHEMERIS_TYPE":0,"CLASSIFICATION_TYPE":"U","NORAD_CAT_ID":66045,"ELEMENT_SET_NO":999,"REV_AT_EPOCH":1915,"BSTAR":8.568319e-6,"MEAN_MOTION_DOT":1.8e-7,"MEAN_MOTION_DDOT":0},{"OBJECT_NAME":"QIANFAN-104","OBJECT_ID":"2025-233P","EPOCH":"2026-03-05T06:38:05.282592","MEAN_MOTION":13.51010209,"ECCENTRICITY":0.00020795,"INCLINATION":88.9941,"RA_OF_ASC_NODE":53.5932,"ARG_OF_PERICENTER":85.9812,"MEAN_ANOMALY":274.1577,"EPHEMERIS_TYPE":0,"CLASSIFICATION_TYPE":"U","NORAD_CAT_ID":66046,"ELEMENT_SET_NO":999,"REV_AT_EPOCH":1920,"BSTAR":2.7339435e-5,"MEAN_MOTION_DOT":3.0e-7,"MEAN_MOTION_DDOT":0},{"OBJECT_NAME":"QIANFAN-105","OBJECT_ID":"2025-233Q","EPOCH":"2026-03-05T06:49:50.375712","MEAN_MOTION":13.50981475,"ECCENTRICITY":0.0002042,"INCLINATION":88.9954,"RA_OF_ASC_NODE":53.4216,"ARG_OF_PERICENTER":92.4238,"MEAN_ANOMALY":267.7147,"EPHEMERIS_TYPE":0,"CLASSIFICATION_TYPE":"U","NORAD_CAT_ID":66047,"ELEMENT_SET_NO":999,"REV_AT_EPOCH":1931,"BSTAR":3.9812293e-5,"MEAN_MOTION_DOT":3.8e-7,"MEAN_MOTION_DDOT":0},{"OBJECT_NAME":"QIANFAN-106","OBJECT_ID":"2025-233R","EPOCH":"2026-03-05T06:44:15.171360","MEAN_MOTION":13.5100519,"ECCENTRICITY":0.00023881,"INCLINATION":88.9923,"RA_OF_ASC_NODE":53.6676,"ARG_OF_PERICENTER":86.151,"MEAN_ANOMALY":273.9914,"EPHEMERIS_TYPE":0,"CLASSIFICATION_TYPE":"U","NORAD_CAT_ID":66048,"ELEMENT_SET_NO":999,"REV_AT_EPOCH":1916,"BSTAR":3.7880489e-5,"MEAN_MOTION_DOT":3.6e-7,"MEAN_MOTION_DDOT":0},{"OBJECT_NAME":"QIANFAN-107","OBJECT_ID":"2025-233S","EPOCH":"2026-03-05T05:09:29.676384","MEAN_MOTION":13.51003229,"ECCENTRICITY":0.00019248,"INCLINATION":88.9938,"RA_OF_ASC_NODE":53.6902,"ARG_OF_PERICENTER":90.6904,"MEAN_ANOMALY":269.4468,"EPHEMERIS_TYPE":0,"CLASSIFICATION_TYPE":"U","NORAD_CAT_ID":66049,"ELEMENT_SET_NO":999,"REV_AT_EPOCH":1915,"BSTAR":5.105422e-5,"MEAN_MOTION_DOT":4.5e-7,"MEAN_MOTION_DDOT":0},{"OBJECT_NAME":"QIANFAN-108","OBJECT_ID":"2025-233T","EPOCH":"2026-03-05T05:15:24.339744","MEAN_MOTION":13.51004729,"ECCENTRICITY":0.00023414,"INCLINATION":88.9931,"RA_OF_ASC_NODE":53.6849,"ARG_OF_PERICENTER":85.7614,"MEAN_ANOMALY":274.3804,"EPHEMERIS_TYPE":0,"CLASSIFICATION_TYPE":"U","NORAD_CAT_ID":66050,"ELEMENT_SET_NO":999,"REV_AT_EPOCH":1915,"BSTAR":4.8146408e-5,"MEAN_MOTION_DOT":4.3e-7,"MEAN_MOTION_DDOT":0}]
